NORAD_CAT_ID,OBJECT_NAME,OBJECT_TYPE,EPOCH,MEAN_MOTION,ECCENTRICITY,INCLINATION,RA_OF_ASC_NODE,ARG_OF_PERICENTER,MEAN_ANOMALY,BSTAR,MEAN_MOTION_DOT,MEAN_MOTION_DDOT,TLE_LINE0,TLE_LINE1,TLE_LINE2,SEMIMAJOR_AXIS,PERIOD,APOGEE,PERIGEE,DECAYED
52375.0,STARLINK-3785,PAYLOAD,2022-11-04 10:07:07,15.08862458,0.0002128,53.2188,271.6032,44.6753,315.4411,0.00038665,5.875e-05,0.0,0 STARLINK-3785,1 52375U 22045AW  22308.42161893  .00005875  00000-0  38665-3 0  9990,2 52375  53.2188 271.6032 0002128  44.6753 315.4411 15.08862458 31554,6917.812,95.436,541.149,538.205,0.0
52375.0,STARLINK-3785,PAYLOAD,2022-11-04 14:53:17,15.0885933,0.0001823,53.2189,270.7125,33.1245,326.9862,0.00028952,4.325e-05,0.0,0 STARLINK-3785,1 52375U 22045AW  22308.62033712  .00004325  00000-0  28952-3 0  9997,2 52375  53.2189 270.7125 0001823  33.1245 326.9862 15.08859330 31583,6917.821,95.436,540.947,538.425,0.0
52375.0,STARLINK-3785,PAYLOAD,2022-11-05 02:00:59,15.08848906,0.0001859,53.2178,268.6298,41.3294,318.7839,0.00011314,1.513e-05,0.0,0 STARLINK-3785,1 52375U 22045AW  22309.08402233  .00001513  00000-0  11314-3 0  9996,2 52375  53.2178 268.6298 0001859  41.3294 318.7839 15.08848906 31650,6917.853,95.437,541.004,538.432,0.0
52375.0,STARLINK-3785,PAYLOAD,2022-11-05 03:36:22,15.08844598,0.0002247,53.2197,268.3313,42.63,317.4866,5.8752e-05,6.47e-06,0.0,0 STARLINK-3785,1 52375U 22045AW  22309.15026266  .00000647  00000-0  58752-4 0  9997,2 52375  53.2197 268.3313 0002247  42.6300 317.4866 15.08844598 31660,6917.866,95.437,541.286,538.177,0.0
52375.0,STARLINK-3785,PAYLOAD,2022-11-05 14:44:05,15.08831392,0.0002128,53.2184,266.2504,40.0901,320.0248,-0.00016149,-2.857e-05,0.0,0 STARLINK-3785,1 52375U 22045AW  22309.61395052 -.00002857  00000-0 -16149-3 0  9990,2 52375  53.2184 266.2504 0002128  40.0901 320.0248 15.08831392 31732,6917.906999999997,95.438,541.244,538.3,0.0
52375.0,STARLINK-3785,PAYLOAD,2022-11-06 08:13:20,15.08835312,0.000204,53.2193,262.9804,42.1013,318.0136,-0.00019181,-3.339e-05,0.0,0 STARLINK-3785,1 52375U 22045AW  22310.34260195 -.00003339  00000-0 -19181-3 0  9996,2 52375  53.2193 262.9804 0002040  42.1013 318.0136 15.08835312 31849,6917.895,95.438,541.1709999999998,538.3480000000002,0.0
52375.0,STARLINK-3785,PAYLOAD,2022-11-07 04:53:21,15.08828289,0.0002141,53.2191,259.1156,36.8291,323.2848,0.00012438,1.691e-05,0.0,0 STARLINK-3785,1 52375U 22045AW  22311.20371707  .00001691  00000-0  12438-3 0  9999,2 52375  53.2191 259.1156 0002141  36.8291 323.2848 15.08828289 31972,6917.916,95.438,541.262,538.3,0.0
52375.0,STARLINK-3785,PAYLOAD,2022-11-07 20:47:12,15.08827181,0.0002054,53.2192,256.1419,39.0836,321.0304,0.00023462,3.447e-05,0.0,0 STARLINK-3785,1 52375U 22045AW  22311.86611970  .00003447  00000-0  23462-3 0  9990,2 52375  53.2192 256.1419 0002054  39.0836 321.0304 15.08827181 32070,6917.92,95.438,541.206,538.364,0.0
52375.0,STARLINK-3785,PAYLOAD,2022-11-08 06:19:30,15.08843557,0.0002113,53.2192,254.3588,39.2485,320.866,0.00027172,4.039e-05,0.0,0 STARLINK-3785,1 52375U 22045AW  22312.26354996  .00004039  00000-0  27172-3 0  9997,2 52375  53.2192 254.3588 0002113  39.2485 320.8660 15.08843557 32139,6917.87,95.437,541.196,538.273,0.0
52375.0,STARLINK-3785,PAYLOAD,2022-11-08 20:37:56,15.08872712,0.0002087,53.2193,251.6815,33.6624,326.45,0.00029218,4.369e-05,0.0,0 STARLINK-3785,1 52375U 22045AW  22312.85968331  .00004369  00000-0  29218-3 0  9995,2 52375  53.2193 251.6815 0002087  33.6624 326.4500 15.08872712 32226,6917.78,95.435,541.089,538.202,0.0
52375.0,STARLINK-3785,PAYLOAD,2022-11-09 12:31:50,15.08834025,0.0002012,53.2193,248.7085,34.3369,325.7753,-2.435e-05,-6.76e-06,0.0,0 STARLINK-3785,1 52375U 22045AW  22313.52211301 -.00000676  00000-0 -24350-4 0  9990,2 52375  53.2193 248.7085 0002012  34.3369 325.7753 15.08834025 32322,6917.899,95.438,541.156,538.372,0.0
52375.0,STARLINK-3785,PAYLOAD,2022-11-10 01:14:55,15.08843867,0.0002061,53.2196,246.3311,38.9768,321.1372,-8.2725e-05,-1.605e-05,0.0,0 STARLINK-3785,1 52375U 22045AW  22314.05202875 -.00001605  00000-0 -82725-4 0  9998,2 52375  53.2196 246.3311 0002061  38.9768 321.1372 15.08843867 32408,6917.869000000002,95.437,541.159,538.308,0.0
52375.0,STARLINK-3785,PAYLOAD,2022-11-10 12:22:38,15.088327,0.0002267,53.2193,244.2461,34.7476,325.3664,-0.00023963,-4.099e-05,0.0,0 STARLINK-3785,1 52375U 22045AW  22314.51571826 -.00004099  00000-0 -23963-3 0  9992,2 52375  53.2193 244.2461 0002267  34.7476 325.3664 15.08832700 32477,6917.903,95.438,541.336,538.1990000000002,0.0
52375.0,STARLINK-3785,PAYLOAD,2022-11-11 04:16:30,15.08823707,0.0001951,53.2192,241.274,32.6977,327.4135,-0.0002281,-3.915e-05,0.0,0 STARLINK-3785,1 52375U 22045AW  22315.17813076 -.00003915  00000-0 -22810-3 0  9997,2 52375  53.2192 241.2740 0001951  32.6977 327.4135 15.08823707 32579,6917.93,95.439,541.145,538.446,0.0
52375.0,STARLINK-3785,PAYLOAD,2022-11-11 12:13:26,15.08819253,0.000173,53.2189,239.7874,34.5286,325.5818,-4.4088e-05,-9.89e-06,0.0,0 STARLINK-3785,1 52375U 22045AW  22315.50933229 -.00000989  00000-0 -44088-4 0  9997,2 52375  53.2189 239.7874 0001730  34.5286 325.5818 15.08819253 32628,6917.944,95.439,541.006,538.612,0.0
52375.0,STARLINK-3785,PAYLOAD,2022-11-12 04:07:17,15.0883446,0.0002089,53.219,236.8143,39.2828,320.8316,0.00022971,3.369e-05,0.0,0 STARLINK-3785,1 52375U 22045AW  22316.17172879  .00003369  00000-0  22971-3 0  9996,2 52375  53.2190 236.8143 0002089  39.2828 320.8316 15.08834460 32728,6917.897,95.438,541.207,538.317,0.0
52375.0,STARLINK-3785,PAYLOAD,2022-11-12 12:04:13,15.0884017,0.0002226,53.2186,235.3286,42.1715,317.9448,0.00045705,6.993e-05,0.0,0 STARLINK-3785,1 52375U 22045AW  22316.50293422  .00006993  00000-0  45705-3 0  9997,2 52375  53.2186 235.3286 0002226  42.1715 317.9448 15.08840170 32779,6917.88,95.438,541.285,538.205,0.0
52375.0,STARLINK-3785,PAYLOAD,2022-11-13 03:58:05,15.0883501,0.0002349,53.2178,232.3549,39.3706,320.7457,-3.4644e-05,-8.400000000000001e-06,0.0,0 STARLINK-3785,1 52375U 22045AW  22317.16534095 -.00000840  00000-0 -34644-4 0  9992,2 52375  53.2178 232.3549 0002349  39.3706 320.7457 15.08835010 32873,6917.896,95.438,541.386,538.136,0.0
52375.0,STARLINK-3785,PAYLOAD,2022-11-13 05:33:28,15.08836394,0.0002325,53.2174,232.0577,38.6365,321.4793,-0.00020395,-3.533e-05,0.0,0 STARLINK-3785,1 52375U 22045AW  22317.23157898 -.00003533  00000-0 -20395-3 0  9991,2 52375  53.2174 232.0577 0002325  38.6365 321.4793 15.08836394 32882,6917.891,95.438,541.365,538.148,0.0
52375.0,STARLINK-3785,PAYLOAD,2022-11-13 18:16:33,15.08842348,0.0002467,53.2177,229.6787,39.1161,321.0009,0.00040608,6.181e-05,0.0,0 STARLINK-3785,1 52375U 22045AW  22317.76150090  .00006181  00000-0  40608-3 0  9995,2 52375  53.2177 229.6787 0002467  39.1161 321.0009 15.08842348 32968,6917.873000000001,95.437,541.445,538.0319999999998,0.0
52375.0,STARLINK-3785,PAYLOAD,2022-11-14 05:24:15,15.08855049,0.0002506,53.2178,227.5974,38.9722,321.145,0.00084898,0.00013255,0.0,0 STARLINK-3785,1 52375U 22045AW  22318.22517784  .00013255  00000-0  84898-3 0  9993,2 52375  53.2178 227.5974 0002506  38.9722 321.1450 15.08855049 33030,6917.834,95.437,541.433,537.966,0.0
52375.0,STARLINK-3785,PAYLOAD,2022-11-14 18:07:19,15.08859945,0.0002188,53.2174,225.2188,42.3012,317.8148,0.00054272,8.365e-05,0.0,0 STARLINK-3785,1 52375U 22045AW  22318.75509163  .00008365  00000-0  54272-3 0  9992,2 52375  53.2174 225.2188 0002188  42.3012 317.8148 15.08859945 33119,6917.819,95.436,541.198,538.1709999999998,0.0
52375.0,STARLINK-3785,PAYLOAD,2022-11-14 22:53:29,15.08850882,0.0001965,53.2179,224.3257,41.1767,318.9373,0.00019371,2.797e-05,0.0,0 STARLINK-3785,1 52375U 22045AW  22318.95381056  .00002797  00000-0  19371-3 0  9997,2 52375  53.2179 224.3257 0001965  41.1767 318.9373 15.08850882 33143,6917.847,95.437,541.071,538.3530000000002,0.0
52375.0,STARLINK-3785,PAYLOAD,2022-11-15 00:28:52,15.08844112,0.0002232,53.2183,224.03,38.5683,321.5468,8.6799e-05,1.094e-05,0.0,0 STARLINK-3785,1 52375U 22045AW  22319.02005357  .00001094  00000-0  86799-4 0  9991,2 52375  53.2183 224.0300 0002232  38.5683 321.5468 15.08844112 33154,6917.868,95.437,541.2769999999998,538.189,0.0
52375.0,STARLINK-3785,PAYLOAD,2022-11-15 21:08:53,15.08842816,0.0002216,53.2182,220.1642,35.4097,324.7042,-1.9282e-05,-5.95e-06,0.0,0 STARLINK-3785,1 52375U 22045AW  22319.88117192 -.00000595  00000-0 -19282-4 0  9996,2 52375  53.2182 220.1642 0002216  35.4097 324.7042 15.08842816 33282,6917.871999999999,95.437,541.27,538.2040000000002,0.0
52375.0,STARLINK-3785,PAYLOAD,2022-11-16 03:30:25,15.08845275,0.000214,53.219,218.9736,41.036,319.0793,4.2689e-05,3.91e-06,0.0,0 STARLINK-3785,1 52375U 22045AW  22320.14613230  .00000391  00000-0  42689-4 0  9990,2 52375  53.2190 218.9736 0002140  41.0360 319.0793 15.08845275 33329,6917.864000000001,95.437,541.21,538.249,0.0
52375.0,STARLINK-3785,PAYLOAD,2022-11-16 09:51:57,15.08851568,0.0002204,53.219,217.7847,38.4534,321.6614,6.292199999999999e-05,7.14e-06,0.0,0 STARLINK-3785,1 52375U 22045AW  22320.41108657  .00000714  00000-0  62922-4 0  9993,2 52375  53.2190 217.7847 0002204  38.4534 321.6614 15.08851568 33360,6917.845,95.437,541.235,538.185,0.0
52375.0,STARLINK-3785,PAYLOAD,2022-11-16 19:24:16,15.08846833,0.000222,53.2189,216.0009,38.4917,321.6233,9.5191e-05,1.227e-05,0.0,0 STARLINK-3785,1 52375U 22045AW  22320.80852691  .00001227  00000-0  95191-4 0  9994,2 52375  53.2189 216.0009 0002220  38.4917 321.6233 15.08846833 33426,6917.86,95.437,541.26,538.189,0.0
52375.0,STARLINK-3785,PAYLOAD,2022-11-17 03:21:12,15.08845676,0.0002121,53.2188,214.5138,35.7431,324.3702,5.723600000000001e-05,6.23e-06,0.0,0 STARLINK-3785,1 52375U 22045AW  22321.13972773  .00000623  00000-0  57236-4 0  9992,2 52375  53.2188 214.5138 0002121  35.7431 324.3702 15.08845676 33472,6917.863,95.437,541.195,538.261,0.0
